{
  "type": "FeatureCollection",
  "features": [
    {
      "type": "Feature",
      "properties": {
        "norad_id": 30718,
        "name": "FENGYUN 1C DEB",
        "group": "fengyun-1c-debris",
        "lat": 20.72766296918863,
        "lon": 56.73599079269526,
        "alt_km": 848.2819511561947,
        "timestamp": "2025-12-05T19:30:25.843912+00:00",
        "meta_object_name": "FENGYUN 1C DEB",
        "meta_object_id": "1999-025ASC",
        "meta_epoch": "2025-12-05T04:14:00.489984",
        "meta_mean_motion": 14.24259175,
        "meta_eccentricity": 0.00576637,
        "meta_inclination": 98.8918,
        "meta_ra_of_asc_node": 59.4885,
        "meta_arg_of_pericenter": 177.6729,
        "meta_mean_anomaly": 182.4728,
        "meta_ephemeris_type": 0,
        "meta_classification_type": "U",
        "meta_norad_cat_id": 30718,
        "meta_element_set_no": 999,
        "meta_rev_at_epoch": 96666,
        "meta_bstar": 0.0037853161,
        "meta_mean_motion_dot": 8.851e-05,
        "meta_mean_motion_ddot": 0,
        "tle_line1": "1 30718U 99025ASC 25339.17639456  .00008851  00000+0  37853-2 0  9996",
        "tle_line2": "2 30718  98.8918  59.4885 0057663 177.6729 182.4728 14.24259175966664"
      },
      "geometry": {
        "type": "Point",
        "coordinates": [
          56.73599079269526,
          20.72766296918863
        ]
      }
    },
    {
      "type": "Feature",
      "properties": {
        "norad_id": 30719,
        "name": "FENGYUN 1C DEB",
        "group": "fengyun-1c-debris",
        "lat": -59.34712825850104,
        "lon": -74.21802914139994,
        "alt_km": 696.4756132298835,
        "timestamp": "2025-12-05T19:30:25.843922+00:00",
        "meta_object_name": "FENGYUN 1C DEB",
        "meta_object_id": "1999-025ASD",
        "meta_epoch": "2025-12-04T16:04:14.489760",
        "meta_mean_motion": 14.58804176,
        "meta_eccentricity": 0.0011704,
        "meta_inclination": 98.8863,
        "meta_ra_of_asc_node": 119.867,
        "meta_arg_of_pericenter": 216.4596,
        "meta_mean_anomaly": 143.5805,
        "meta_ephemeris_type": 0,
        "meta_classification_type": "U",
        "meta_norad_cat_id": 30719,
        "meta_element_set_no": 999,
        "meta_rev_at_epoch": 97331,
        "meta_bstar": 0.0089595,
        "meta_mean_motion_dot": 0.00042135,
        "meta_mean_motion_ddot": 0,
        "tle_line1": "1 30719U 99025ASD 25338.66961215  .00042135  00000+0  89595-2 0  9994",
        "tle_line2": "2 30719  98.8863 119.8670 0011704 216.4596 143.5805 14.58804176973315"
      },
      "geometry": {
        "type": "Point",
        "coordinates": [
          -74.21802914139994,
          -59.34712825850104
        ]
      }
    },
    {
      "type": "Feature",
      "properties": {
        "norad_id": 30720,
        "name": "FENGYUN 1C DEB",
        "group": "fengyun-1c-debris",
        "lat": -76.36126018625329,
        "lon": -165.96371113900426,
        "alt_km": 793.7350858449845,
        "timestamp": "2025-12-05T19:30:25.843933+00:00",
        "meta_object_name": "FENGYUN 1C DEB",
        "meta_object_id": "1999-025ASE",
        "meta_epoch": "2025-12-01T10:17:46.773312",
        "meta_mean_motion": 14.2908859,
        "meta_eccentricity": 0.00323724,
        "meta_inclination": 99.0369,
        "meta_ra_of_asc_node": 148.5071,
        "meta_arg_of_pericenter": 2.1711,
        "meta_mean_anomaly": 57.7271,
        "meta_ephemeris_type": 0,
        "meta_classification_type": "U",
        "meta_norad_cat_id": 30720,
        "meta_element_set_no": 999,
        "meta_rev_at_epoch": 97327,
        "meta_bstar": 0.00040425799,
        "meta_mean_motion_dot": 9.83e-06,
        "meta_mean_motion_ddot": 0,
        "tle_line1": "1 30720U 99025ASE 25335.42901358  .00000983  00000+0  40426-3 0  9995",
        "tle_line2": "2 30720  99.0369 148.5071 0032372   2.1711  57.7271 14.29088590973278"
      },
      "geometry": {
        "type": "Point",
        "coordinates": [
          -165.96371113900426,
          -76.36126018625329
        ]
      }
    },
    {
      "type": "Feature",
      "properties": {
        "norad_id": 30721,
        "name": "FENGYUN 1C DEB",
        "group": "fengyun-1c-debris",
        "lat": 3.0226421764764204,
        "lon": -68.9058401344087,
        "alt_km": 678.2372536784596,
        "timestamp": "2025-12-05T19:30:25.843943+00:00",
        "meta_object_name": "FENGYUN 1C DEB",
        "meta_object_id": "1999-025ASF",
        "meta_epoch": "2025-12-05T07:22:52.339872",
        "meta_mean_motion": 14.71420901,
        "meta_eccentricity": 0.00274847,
        "meta_inclination": 98.7103,
        "meta_ra_of_asc_node": 110.0901,
        "meta_arg_of_pericenter": 4.1552,
        "meta_mean_anomaly": 17.8223,
        "meta_ephemeris_type": 0,
        "meta_classification_type": "U",
        "meta_norad_cat_id": 30721,
        "meta_element_set_no": 999,
        "meta_rev_at_epoch": 97733,
        "meta_bstar": 0.0058076878,
        "meta_mean_motion_dot": 0.00036313,
        "meta_mean_motion_ddot": 0,
        "tle_line1": "1 30721U 99025ASF 25339.30755023  .00036313  00000+0  58077-2 0  9999",
        "tle_line2": "2 30721  98.7103 110.0901 0027484   4.1552  17.8223 14.71420901977338"
      },
      "geometry": {
        "type": "Point",
        "coordinates": [
          -68.9058401344087,
          3.0226421764764204
        ]
      }
    },
    {
      "type": "Feature",
      "properties": {
        "norad_id": 30723,
        "name": "FENGYUN 1C DEB",
        "group": "fengyun-1c-debris",
        "lat": 80.86002856326486,
        "lon": -9.827271904739552,
        "alt_km": 757.4036096878644,
        "timestamp": "2025-12-05T19:30:25.843953+00:00",
        "meta_object_name": "FENGYUN 1C DEB",
        "meta_object_id": "1999-025ASH",
        "meta_epoch": "2025-12-03T17:42:49.827744",
        "meta_mean_motion": 14.41129588,
        "meta_eccentricity": 0.00148167,
        "meta_inclination": 98.8448,
        "meta_ra_of_asc_node": 63.4491,
        "meta_arg_of_pericenter": 288.3809,
        "meta_mean_anomaly": 201.4898,
        "meta_ephemeris_type": 0,
        "meta_classification_type": "U",
        "meta_norad_cat_id": 30723,
        "meta_element_set_no": 999,
        "meta_rev_at_epoch": 97241,
        "meta_bstar": 0.0032543146,
        "meta_mean_motion_dot": 0.00010469,
        "meta_mean_motion_ddot": 0,
        "tle_line1": "1 30723U 99025ASH 25337.73807671  .00010469  00000+0  32543-2 0  9997",
        "tle_line2": "2 30723  98.8448  63.4491 0014816 288.3809 201.4898 14.41129588972411"
      },
      "geometry": {
        "type": "Point",
        "coordinates": [
          -9.827271904739552,
          80.86002856326486
        ]
      }
    },
    {
      "type": "Feature",
      "properties": {
        "norad_id": 30724,
        "name": "FENGYUN 1C DEB",
        "group": "fengyun-1c-debris",
        "lat": 74.14224756030364,
        "lon": 19.218500599164773,
        "alt_km": 827.6981879514842,
        "timestamp": "2025-12-05T19:30:25.843963+00:00",
        "meta_object_name": "FENGYUN 1C DEB",
        "meta_object_id": "1999-025ASJ",
        "meta_epoch": "2025-12-02T10:57:10.970208",
        "meta_mean_motion": 14.37002332,
        "meta_eccentricity": 0.00930548,
        "meta_inclination": 99.3161,
        "meta_ra_of_asc_node": 160.2865,
        "meta_arg_of_pericenter": 290.0804,
        "meta_mean_anomaly": 99.0491,
        "meta_ephemeris_type": 0,
        "meta_classification_type": "U",
        "meta_norad_cat_id": 30724,
        "meta_element_set_no": 999,
        "meta_rev_at_epoch": 98305,
        "meta_bstar": 0.00053378755,
        "meta_mean_motion_dot": 1.61e-05,
        "meta_mean_motion_ddot": 0,
        "tle_line1": "1 30724U 99025ASJ 25336.45637697  .00001610  00000+0  53379-3 0  9994",
        "tle_line2": "2 30724  99.3161 160.2865 0093054 290.0804  99.0491 14.37002332983051"
      },
      "geometry": {
        "type": "Point",
        "coordinates": [
          19.218500599164773,
          74.14224756030364
        ]
      }
    },
    {
      "type": "Feature",
      "properties": {
        "norad_id": 30725,
        "name": "FENGYUN 1C DEB",
        "group": "fengyun-1c-debris",
        "lat": 62.24737889095821,
        "lon": 31.006548573101796,
        "alt_km": 771.1081509251026,
        "timestamp": "2025-12-05T19:30:25.843974+00:00",
        "meta_object_name": "FENGYUN 1C DEB",
        "meta_object_id": "1999-025ASK",
        "meta_epoch": "2025-12-05T04:12:16.621632",
        "meta_mean_motion": 14.16017039,
        "meta_eccentricity": 0.00877199,
        "meta_inclination": 99.008,
        "meta_ra_of_asc_node": 47.9078,
        "meta_arg_of_pericenter": 52.086,
        "meta_mean_anomaly": 2.8699,
        "meta_ephemeris_type": 0,
        "meta_classification_type": "U",
        "meta_norad_cat_id": 30725,
        "meta_element_set_no": 999,
        "meta_rev_at_epoch": 96241,
        "meta_bstar": 0.0022314398,
        "meta_mean_motion_dot": 4.527e-05,
        "meta_mean_motion_ddot": 0,
        "tle_line1": "1 30725U 99025ASK 25339.17519238  .00004527  00000+0  22314-2 0  9991",
        "tle_line2": "2 30725  99.0080  47.9078 0087719  52.0860   2.8699 14.16017039962411"
      },
      "geometry": {
        "type": "Point",
        "coordinates": [
          31.006548573101796,
          62.24737889095821
        ]
      }
    }
  ]
}